{
  "type": "FeatureCollection",
  "features": [
    {
      "type": "Feature",
      "properties": {
        "norad_id": 34079,
        "name": "IRIDIUM 33 DEB",
        "group": "iridium-33-debris",
        "lat": -85.66786086114257,
        "lon": -45.46360101057555,
        "alt_km": 628.1405811941231,
        "timestamp": "2025-12-06T22:38:43.113424+00:00",
        "meta_object_name": "IRIDIUM 33 DEB",
        "meta_object_id": "1997-051CN",
        "meta_epoch": "2025-12-06T13:52:57.319680",
        "meta_mean_motion": 14.83289985,
        "meta_eccentricity": 0.00063527,
        "meta_inclination": 86.377,
        "meta_ra_of_asc_node": 11.4634,
        "meta_arg_of_pericenter": 27.2325,
        "meta_mean_anomaly": 96.842,
        "meta_ephemeris_type": 0,
        "meta_classification_type": "U",
        "meta_norad_cat_id": 34079,
        "meta_element_set_no": 999,
        "meta_rev_at_epoch": 88886,
        "meta_bstar": 0.0027996652,
        "meta_mean_motion_dot": 0.00022987,
        "meta_mean_motion_ddot": 0,
        "tle_line1": "1 34079U 97051CN  25340.57844120  .00022987  00000+0  27997-2 0  9993",
        "tle_line2": "2 34079  86.3770  11.4634 0006352  27.2325  96.8420 14.83289985888866"
      },
      "geometry": {
        "type": "Point",
        "coordinates": [
          -45.46360101057555,
          -85.66786086114257
        ]
      }
    },
    {
      "type": "Feature",
      "properties": {
        "norad_id": 34088,
        "name": "IRIDIUM 33 DEB",
        "group": "iridium-33-debris",
        "lat": -22.205755792307517,
        "lon": -145.1343528534667,
        "alt_km": 596.7781219079507,
        "timestamp": "2025-12-06T22:38:43.113434+00:00",
        "meta_object_name": "IRIDIUM 33 DEB",
        "meta_object_id": "1997-051CX",
        "meta_epoch": "2025-12-06T15:49:52.516704",
        "meta_mean_motion": 14.909456,
        "meta_eccentricity": 0.00052368,
        "meta_inclination": 86.3851,
        "meta_ra_of_asc_node": 33.5172,
        "meta_arg_of_pericenter": 198.8433,
        "meta_mean_anomaly": 280.3805,
        "meta_ephemeris_type": 0,
        "meta_classification_type": "U",
        "meta_norad_cat_id": 34088,
        "meta_element_set_no": 999,
        "meta_rev_at_epoch": 88651,
        "meta_bstar": 0.0043418715,
        "meta_mean_motion_dot": 0.00043099,
        "meta_mean_motion_ddot": 0,
        "tle_line1": "1 34088U 97051CX  25340.65963561  .00043099  00000+0  43419-2 0  9997",
        "tle_line2": "2 34088  86.3851  33.5172 0005236 198.8433 280.3805 14.90945600886511"
      },
      "geometry": {
        "type": "Point",
        "coordinates": [
          -145.1343528534667,
          -22.205755792307517
        ]
      }
    },
    {
      "type": "Feature",
      "properties": {
        "norad_id": 34091,
        "name": "IRIDIUM 33 DEB",
        "group": "iridium-33-debris",
        "lat": -49.154569249618916,
        "lon": -106.2688258196428,
        "alt_km": 630.4894855348966,
        "timestamp": "2025-12-06T22:38:43.113445+00:00",
        "meta_object_name": "IRIDIUM 33 DEB",
        "meta_object_id": "1997-051DA",
        "meta_epoch": "2025-12-06T11:52:54.870528",
        "meta_mean_motion": 14.81097968,
        "meta_eccentricity": 0.00331225,
        "meta_inclination": 86.3424,
        "meta_ra_of_asc_node": 69.6932,
        "meta_arg_of_pericenter": 315.6855,
        "meta_mean_anomaly": 44.1716,
        "meta_ephemeris_type": 0,
        "meta_classification_type": "U",
        "meta_norad_cat_id": 34091,
        "meta_element_set_no": 999,
        "meta_rev_at_epoch": 87774,
        "meta_bstar": 0.0094887545,
        "meta_mean_motion_dot": 0.00075084,
        "meta_mean_motion_ddot": 0,
        "tle_line1": "1 34091U 97051DA  25340.49507952  .00075084  00000+0  94888-2 0  9996",
        "tle_line2": "2 34091  86.3424  69.6932 0033122 315.6855  44.1716 14.81097968877744"
      },
      "geometry": {
        "type": "Point",
        "coordinates": [
          -106.2688258196428,
          -49.154569249618916
        ]
      }
    },
    {
      "type": "Feature",
      "properties": {
        "norad_id": 34097,
        "name": "IRIDIUM 33 DEB",
        "group": "iridium-33-debris",
        "lat": 11.224050266822465,
        "lon": 4.721854101959895,
        "alt_km": 718.73384312894,
        "timestamp": "2025-12-06T22:38:43.113455+00:00",
        "meta_object_name": "IRIDIUM 33 DEB",
        "meta_object_id": "1997-051DG",
        "meta_epoch": "2025-12-06T12:33:02.637216",
        "meta_mean_motion": 14.34704605,
        "meta_eccentricity": 0.00832985,
        "meta_inclination": 86.1999,
        "meta_ra_of_asc_node": 4.1517,
        "meta_arg_of_pericenter": 22.3906,
        "meta_mean_anomaly": 338.0891,
        "meta_ephemeris_type": 0,
        "meta_classification_type": "U",
        "meta_norad_cat_id": 34097,
        "meta_element_set_no": 999,
        "meta_rev_at_epoch": 87030,
        "meta_bstar": 0.002279274,
        "meta_mean_motion_dot": 6.729e-05,
        "meta_mean_motion_ddot": 0,
        "tle_line1": "1 34097U 97051DG  25340.52294719  .00006729  00000+0  22793-2 0  9996",
        "tle_line2": "2 34097  86.1999   4.1517 0083298  22.3906 338.0891 14.34704605870301"
      },
      "geometry": {
        "type": "Point",
        "coordinates": [
          4.721854101959895,
          11.224050266822465
        ]
      }
    },
    {
      "type": "Feature",
      "properties": {
        "norad_id": 34145,
        "name": "IRIDIUM 33 DEB",
        "group": "iridium-33-debris",
        "lat": 55.408349017252846,
        "lon": 149.59331557669398,
        "alt_km": 707.2604662227841,
        "timestamp": "2025-12-06T22:38:43.113466+00:00",
        "meta_object_name": "IRIDIUM 33 DEB",
        "meta_object_id": "1997-051DY",
        "meta_epoch": "2025-12-06T10:25:04.617408",
        "meta_mean_motion": 14.42222386,
        "meta_eccentricity": 0.0055493,
        "meta_inclination": 86.2109,
        "meta_ra_of_asc_node": 335.3346,
        "meta_arg_of_pericenter": 113.8958,
        "meta_mean_anomaly": 246.807,
        "meta_ephemeris_type": 0,
        "meta_classification_type": "U",
        "meta_norad_cat_id": 34145,
        "meta_element_set_no": 999,
        "meta_rev_at_epoch": 87547,
        "meta_bstar": 0.0018632414,
        "meta_mean_motion_dot": 6.274e-05,
        "meta_mean_motion_ddot": 0,
        "tle_line1": "1 34145U 97051DY  25340.43408122  .00006274  00000+0  18632-2 0  9997",
        "tle_line2": "2 34145  86.2109 335.3346 0055493 113.8958 246.8070 14.42222386875475"
      },
      "geometry": {
        "type": "Point",
        "coordinates": [
          149.59331557669398,
          55.408349017252846
        ]
      }
    },
    {
      "type": "Feature",
      "properties": {
        "norad_id": 34146,
        "name": "IRIDIUM 33 DEB",
        "group": "iridium-33-debris",
        "lat": -18.778052222996635,
        "lon": -8.905374238163047,
        "alt_km": 736.7899375620491,
        "timestamp": "2025-12-06T22:38:43.113477+00:00",
        "meta_object_name": "IRIDIUM 33 DEB",
        "meta_object_id": "1997-051DZ",
        "meta_epoch": "2025-12-06T11:50:11.529600",
        "meta_mean_motion": 14.4898423,
        "meta_eccentricity": 0.00250615,
        "meta_inclination": 86.2832,
        "meta_ra_of_asc_node": 352.5599,
        "meta_arg_of_pericenter": 243.9958,
        "meta_mean_anomaly": 269.256,
        "meta_ephemeris_type": 0,
        "meta_classification_type": "U",
        "meta_norad_cat_id": 34146,
        "meta_element_set_no": 999,
        "meta_rev_at_epoch": 88016,
        "meta_bstar": 0.0017576826,
        "meta_mean_motion_dot": 6.708e-05,
        "meta_mean_motion_ddot": 0,
        "tle_line1": "1 34146U 97051DZ  25340.49318900  .00006708  00000+0  17577-2 0  9997",
        "tle_line2": "2 34146  86.2832 352.5599 0025061 243.9958 269.2560 14.48984230880167"
      },
      "geometry": {
        "type": "Point",
        "coordinates": [
          -8.905374238163047,
          -18.778052222996635
        ]
      }
    },
    {
      "type": "Feature",
      "properties": {
        "norad_id": 34159,
        "name": "IRIDIUM 33 DEB",
        "group": "iridium-33-debris",
        "lat": -83.66204128075603,
        "lon": 15.654682113284947,
        "alt_km": 755.3491131562268,
        "timestamp": "2025-12-06T22:38:43.113488+00:00",
        "meta_object_name": "IRIDIUM 33 DEB",
        "meta_object_id": "1997-051EN",
        "meta_epoch": "2025-12-06T11:21:03.034656",
        "meta_mean_motion": 14.38470659,
        "meta_eccentricity": 0.00261526,
        "meta_inclination": 86.3518,
        "meta_ra_of_asc_node": 50.9135,
        "meta_arg_of_pericenter": 309.9003,
        "meta_mean_anomaly": 49.9896,
        "meta_ephemeris_type": 0,
        "meta_classification_type": "U",
        "meta_norad_cat_id": 34159,
        "meta_element_set_no": 999,
        "meta_rev_at_epoch": 87869,
        "meta_bstar": 0.00083149264,
        "meta_mean_motion_dot": 2.566e-05,
        "meta_mean_motion_ddot": 0,
        "tle_line1": "1 34159U 97051EN  25340.47295179  .00002566  00000+0  83149-3 0  9998",
        "tle_line2": "2 34159  86.3518  50.9135 0026152 309.9003  49.9896 14.38470659878698"
      },
      "geometry": {
        "type": "Point",
        "coordinates": [
          15.654682113284947,
          -83.66204128075603
        ]
      }
    }
  ]
}